{
  "version": 0.6,
  "generator": "Overpass API 0.7.62.8 e802775f",
  "osm3s": {
    "timestamp_osm_base": "2025-11-22T17:10:35Z",
    "timestamp_areas_base": "2025-11-22T10:23:53Z",
    "copyright": "The data included in this document is from www.openstreetmap.org. The data is made available under ODbL."
  },
  "elements": [

{
  "type": "node",
  "id": 13766899,
  "lat": -33.8698439,
  "lon": 151.2082848,
  "tags": {
    "alt_name:xdk": "Warrane",
    "capital": "4",
    "name": "Sydney",
    "name:ab": "Сиднеи",
    "name:am": "ሲድኒ",
    "name:ar": "سيدني",
    "name:as": "ছিডনী",
    "name:ay": "Sidni",
    "name:az": "Sidney",
    "name:ba": "Сидней",
    "name:be": "Сіднэй",
    "name:bg": "Сидни",
    "name:bh": "सिडनी",
    "name:bi": "Sidni",
    "name:bn": "সিডনি",
    "name:bo": "སིད་ནེ།",
    "name:ce": "Сидней",
    "name:ch": "Sidni",
    "name:cv": "Сидней",
    "name:de": "Sydney",
    "name:el": "Σίδνεϊ",
    "name:en": "Sydney",
    "name:eo": "Sidnejo",
    "name:es": "Sídney",
    "name:fa": "سیدنی",
    "name:fj": "Serene",
    "name:fr": "Sydney",
    "name:gn": "Sínei",
    "name:gu": "સીડની",
    "name:he": "סידני",
    "name:hi": "सिड्णि",
    "name:ht": "Sidnè",
    "name:hy": "Սիդնեյ",
    "name:is": "Sydney",
    "name:iu": "ᓯᑦᓂ",
    "name:ja": "シドニー",
    "name:ka": "სიდნეი",
    "name:kk": "Сидней",
    "name:km": "ស៊ីដនីយ៏",
    "name:kn": "ಸಿಡ್ಣಿ",
    "name:ko": "시드니",
    "name:ku": "Sîdney",
    "name:la": "Sydneium",
    "name:lt": "Sidnėjus",
    "name:lv": "Sidneja",
    "name:mi": "Poihākena",
    "name:mk": "Сиднеј",
    "name:ml": "സിഡ്നി",
    "name:mn": "Сидней",
    "name:mr": "सिडनी",
    "name:my": "ဆစ်ဒနီမြို့",
    "name:ne": "सिड्नी",
    "name:oc": "Sydney",
    "name:om": "Siidnii",
    "name:os": "Сидней",
    "name:pa": "ਸਿਡਨੀ",
    "name:pl": "Sydney",
    "name:ps": "سیډني",
    "name:ru": "Сидней",
    "name:sa": "सिडनी",
    "name:sd": "سڊني",
    "name:si": "සිඩ්නි",
    "name:sm": "Sini",
    "name:sq": "Sidnej",
    "name:sr": "Сиднеј",
    "name:sv": "Sydney",
    "name:ta": "சிட்னி",
    "name:te": "సిడ్నీ",
    "name:tg": "Сидней",
    "name:th": "ซิดนีย์",
    "name:tk": "Sidneý",
    "name:tl": "Sidney",
    "name:to": "Senē",
    "name:tr": "Sidney",
    "name:tt": "Сидней",
    "name:ty": "Tene",
    "name:ug": "Sidnéy",
    "name:uk": "Сідней",
    "name:ur": "سڈنی",
    "name:uz": "Sidney",
    "name:xdk": "Gadigal",
    "name:xh": "Sidni",
    "name:yi": "סידני",
    "name:zh": "悉尼",
    "name:zh-Hans-CN": "悉尼",
    "name:zh-Hant-TW": "雪梨",
    "place": "city",
    "population": "4698656",
    "population:date": "2021",
    "rank": "0",
    "source:alt_name:xdk": "used by Tourism Australia",
    "source:name:oc": "Lo Congrès",
    "source:name:xdk": "used by Australia Post",
    "source:population": "ABS Urban Centres and Localities",
    "wikidata": "Q3130",
    "wikipedia": "en:Sydney"
  }
},
{
  "type": "node",
  "id": 21579127,
  "lat": -37.8142454,
  "lon": 144.9631732,
  "tags": {
    "capital": "4",
    "name": "Melbourne",
    "name:ab": "Мельбурн",
    "name:am": "መልበርን",
    "name:ar": "ملبورن",
    "name:az": "Melburn",
    "name:ba": "Мельбурн",
    "name:be": "Мельбурн",
    "name:bg": "Мелбърн",
    "name:bh": "मेलबर्न",
    "name:bi": "Melben",
    "name:bn": "মেলবোর্ন",
    "name:bo": "མེར་བུན",
    "name:ce": "Мельбурн",
    "name:cv": "Мельбурн",
    "name:de": "Melbourne",
    "name:el": "Μελβούρνη",
    "name:en": "Melbourne",
    "name:en:pronunciation": "ˈmɛlbn̩",
    "name:eo": "Melburno",
    "name:es": "Melbourne",
    "name:fa": "ملبورن",
    "name:fi": "Melbourne",
    "name:fj": "Malevani",
    "name:fr": "Melbourne",
    "name:gu": "મેલબોર્ન",
    "name:he": "מלבורן",
    "name:hi": "मॆल्बोर्न्",
    "name:hr": "Melbourne",
    "name:hu": "Melbourne",
    "name:hy": "Մելբուռն",
    "name:is": "Melbourne",
    "name:ja": "メルボルン",
    "name:ka": "მელბურნი",
    "name:kk": "Мельбурн",
    "name:kn": "ಮೆಲ್ಬೋರ್ನ್",
    "name:ko": "멜버른",
    "name:ky": "Мельбурн",
    "name:la": "Melburnia",
    "name:lo": "ເມລເບີນ",
    "name:lt": "Melburnas",
    "name:lv": "Melburna",
    "name:mi": "Poipiripi",
    "name:mk": "Мелбурн",
    "name:ml": "മെൽബൺ",
    "name:mn": "Мельбурн",
    "name:mr": "मेलबर्न",
    "name:my": "မဲလ်ဘုန်းမြို့",
    "name:ne": "मेलबर्न",
    "name:oc": "Melbourne",
    "name:os": "Мельбурн",
    "name:pa": "ਮੈਲਬਰਨ",
    "name:pl": "Melbourne",
    "name:pronunciation": "ˈmɛlbn̩",
    "name:ru": "Мельбурн",
    "name:sa": "मेलबॉर्न",
    "name:sd": "ميلبورن",
    "name:si": "මෙල්බන්",
    "name:sl": "Melbourne",
    "name:sm": "Melepone",
    "name:sq": "Melburni",
    "name:sr": "Мелбурн",
    "name:sv": "Melbourne",
    "name:ta": "மெல்பேர்ண்",
    "name:te": "మెల్‌బోర్న్",
    "name:tg": "Мелбурн",
    "name:th": "เมลเบิร์น",
    "name:tk": "Melburn",
    "name:to": "Melipoane",
    "name:tt": "Мельбурн",
    "name:ty": "Marapana",
    "name:ug": "Mélburn",
    "name:uk": "Мельбурн",
    "name:ur": "ملبورن",
    "name:uz": "Melburn",
    "name:wyi": "Naarm",
    "name:yi": "מעלבארן",
    "name:zh": "墨爾本/墨尔本",
    "name:zh-Hans": "墨尔本",
    "place": "city",
    "population": "4585537",
    "population:date": "2021",
    "source:name:oc": "Lo Congrès",
    "source:population": "ABS Urban Centres and Localities",
    "state_capital": "yes",
    "website": "https://www.melbourne.vic.gov.au/",
    "wikidata": "Q3141",
    "wikipedia": "en:Melbourne"
  }
},
{
  "type": "node",
  "id": 29277817,
  "lat": -31.9558967,
  "lon": 115.8605784,
  "tags": {
    "admin_level": "4",
    "capital": "4",
    "name": "Perth",
    "name:am": "ፐርስ፣ አውስትራሊያ",
    "name:ar": "بيرث",
    "name:az": "Pert",
    "name:ba": "Перт",
    "name:be": "Перт",
    "name:bg": "Пърт",
    "name:bh": "पर्थ",
    "name:bn": "পার্থ",
    "name:br": "Perth",
    "name:ce": "Перт",
    "name:cv": "Перт",
    "name:cy": "Perth",
    "name:da": "Perth",
    "name:de": "Perth",
    "name:el": "Περθ",
    "name:en": "Perth",
    "name:eo": "Perto",
    "name:es": "Perth",
    "name:et": "Perth",
    "name:fa": "پرث",
    "name:fi": "Perth",
    "name:fj": "Pefa",
    "name:fr": "Perth",
    "name:gd": "Peairt",
    "name:gn": "Perth",
    "name:gu": "પર્થ",
    "name:he": "פרת",
    "name:hi": "पर्थ",
    "name:hu": "Perth",
    "name:hy": "Փերթ",
    "name:id": "Perth",
    "name:io": "Perth",
    "name:is": "Perth",
    "name:ja": "パース",
    "name:ka": "პერთი",
    "name:kk": "Перт",
    "name:kn": "ಪರ್ತ್",
    "name:ko": "퍼스",
    "name:ku": "Perth",
    "name:ky": "Перт",
    "name:la": "Perthia",
    "name:li": "Perth",
    "name:lt": "Pertas",
    "name:lv": "Pērta",
    "name:mi": "Peraha",
    "name:mk": "Перт",
    "name:ml": "പെർത്ത്",
    "name:mn": "Перт",
    "name:mr": "पर्थ",
    "name:ms": "Perth",
    "name:my": "ပါ့သ်မြို့",
    "name:nb": "Perth",
    "name:ne": "पर्थ",
    "name:nl": "Perth",
    "name:nys": "Boorlo",
    "name:oc": "Perth",
    "name:os": "Перт",
    "name:pa": "ਪਰਥ",
    "name:pl": "Perth",
    "name:ps": "پرت",
    "name:pt": "Perth",
    "name:ru": "Перт",
    "name:sa": "पर्थ",
    "name:sd": "پرٿ",
    "name:si": "පර්ත්",
    "name:sk": "Perth",
    "name:sl": "Perth",
    "name:sm": "Pefa",
    "name:sr": "Перт",
    "name:sv": "Perth",
    "name:ta": "பேர்த்",
    "name:tg": "Перт",
    "name:th": "เพิร์ท",
    "name:to": "Pēfi",
    "name:tr": "Perth",
    "name:tt": "Пөрт",
    "name:uk": "Перт",
    "name:ur": "پرتھ",
    "name:uz": "Pert",
    "name:zh": "珀斯",
    "place": "city",
    "population": "2043762",
    "population:date": "2021",
    "source:population": "ABS Urban Centres and Localities",
    "website": "https://www.cityofperth.wa.gov.au/",
    "wikidata": "Q3183",
    "wikipedia": "en:Perth"
  }
},
{
  "type": "node",
  "id": 59149739,
  "lat": -42.8825088,
  "lon": 147.3281233,
  "tags": {
    "admin_level": "4",
    "capital": "4",
    "ele": "54",
    "name": "Hobart",
    "name:am": "ሆባርት",
    "name:ar": "هوبارت",
    "name:be": "Хобарт",
    "name:bg": "Хобарт",
    "name:bh": "होबार्ट",
    "name:bn": "হোবার্ট",
    "name:bo": "ཧོ་སྦར་ཐེ།",
    "name:ckb": "هۆبارت",
    "name:cv": "Хобарт",
    "name:el": "Χόμπαρτ",
    "name:en": "Hobart",
    "name:eo": "Hobarto",
    "name:es": "Hobart",
    "name:fa": "هوبارت",
    "name:fr": "Hobart",
    "name:fy": "Hobart",
    "name:he": "הובארט",
    "name:hi": "होबार्ट",
    "name:hu": "Hobart",
    "name:hy": "Հոբարթ",
    "name:id": "Hobart",
    "name:is": "Hobart",
    "name:ja": "ホバート",
    "name:ka": "ჰობარტი",
    "name:kk": "Хобарт",
    "name:kn": "ಹೋಬಾರ್ಟ್",
    "name:ko": "호바트",
    "name:la": "Hobartum",
    "name:lt": "Hobartas",
    "name:lv": "Hobārta",
    "name:mi": "Hopatāone",
    "name:mk": "Хобарт",
    "name:ml": "ഹൊബാർട്ട്",
    "name:mn": "Хобарт",
    "name:mr": "होबर्ट",
    "name:ne": "होबार्ट",
    "name:nl": "Hobart",
    "name:os": "Хобарт",
    "name:pa": "ਹੋਬਾਰਟ",
    "name:pl": "Hobart",
    "name:ps": "هوبارټ",
    "name:ru": "Хобарт",
    "name:sa": "होबार्ट",
    "name:si": "හෝබාර්ට්",
    "name:sk": "Hobart",
    "name:sr": "Хобарт",
    "name:sv": "Hobart",
    "name:ta": "ஹோபார்ட்",
    "name:th": "โฮบาร์ต",
    "name:to": "Hopaati",
    "name:tt": "Һобарт",
    "name:uk": "Гобарт",
    "name:ur": "ہوبارٹ",
    "name:uz": "Xobart",
    "name:vo": "Hobart",
    "name:zh": "荷巴特",
    "place": "city",
    "population": "197451",
    "population:date": "2021",
    "source:population": "ABS Urban Centres and Localities",
    "website": "https://www.hobartcity.com.au/",
    "wikidata": "Q40191",
    "wikipedia": "en:Hobart"
  }
},
{
  "type": "node",
  "id": 941125358,
  "lat": -34.9281805,
  "lon": 138.5999312,
  "tags": {
    "capital": "4",
    "name": "Adelaide",
    "name:ar": "أديليد",
    "name:be": "Адэлаіда",
    "name:bn": "অ্যাডিলেইড",
    "name:de": "Adelaide",
    "name:en": "Adelaide",
    "name:eo": "Adelajdo",
    "name:es": "Adelaida",
    "name:fr": "Adélaïde",
    "name:he": "אדלייד",
    "name:id": "Adelaide",
    "name:is": "Adelaide",
    "name:ja": "アデレード",
    "name:kn": "ಅಡಿಲೇಡ್",
    "name:lt": "Adelaidė",
    "name:mk": "Аделаида",
    "name:mr": "आडेलेड",
    "name:pt": "Adelaide",
    "name:ru": "Аделаида",
    "name:sr": "Аделејд",
    "name:sv": "Adelaide",
    "name:tt": "Әделайд",
    "name:uk": "Аделаїда",
    "name:zh": "阿德莱德",
    "name:zku": "Tarntanya",
    "place": "city",
    "population": "1245011",
    "population:date": "2021",
    "source:population": "ABS Urban Centres and Localities",
    "wikidata": "Q5112",
    "wikipedia": "en:Adelaide"
  }
},
{
  "type": "node",
  "id": 1546628274,
  "lat": -27.4689623,
  "lon": 153.0235009,
  "tags": {
    "admin_level": "4",
    "alt_name": "Brissy",
    "alt_name:en": "Brissy",
    "capital": "4",
    "loc_name": "Brissie",
    "loc_name:en": "Brissie",
    "name": "Brisbane",
    "name:ab": "Брисбен",
    "name:am": "ብርዝበን",
    "name:ar": "بريزبان",
    "name:aus": "Meanjin",
    "name:az": "Brisben",
    "name:be": "Брысбэн",
    "name:bg": "Брисбейн",
    "name:bh": "ब्रिस्बेन",
    "name:bn": "ব্রিসবেন",
    "name:ce": "Брисбен",
    "name:de": "Brisbane",
    "name:el": "Μπρίσμπεϊν",
    "name:en": "Brisbane",
    "name:eo": "Brisbano",
    "name:es": "Brisbane",
    "name:fa": "بریزبن",
    "name:fj": "Birisibeni",
    "name:fr": "Brisbane",
    "name:he": "בריסביין",
    "name:hi": "ब्रिस्बेन",
    "name:hr": "Brisbane",
    "name:hy": "Բրիսբեն",
    "name:is": "Brisbane",
    "name:ja": "ブリスベン",
    "name:ka": "ბრიზბენი",
    "name:kk": "Брисбен",
    "name:kn": "ಬ್ರಿಸ್ಬೇನ್",
    "name:ko": "브리즈번",
    "name:ky": "Брисбен",
    "name:la": "Brisbania",
    "name:lt": "Brisbenas",
    "name:lv": "Brisbena",
    "name:mi": "Piripane",
    "name:mk": "Бризбејн",
    "name:ml": "ബ്രിസ്ബെയ്ൻ",
    "name:mn": "Брисбэн",
    "name:mr": "ब्रिसबेन",
    "name:my": "ဘရစ်စဘိန်းမြို့",
    "name:ne": "ब्रिसबेन",
    "name:oc": "Brisbane",
    "name:os": "Брисбен",
    "name:pa": "ਬ੍ਰਿਜ਼ਬਨ",
    "name:pronunciation": "ˈbɹɪzbən",
    "name:ps": "بریزبن",
    "name:pt": "Brisbane",
    "name:ru": "Брисбен",
    "name:sa": "ब्रिस्बेन",
    "name:sd": "برسبين",
    "name:si": "බ්‍රිස්බන්",
    "name:sl": "Brisbane",
    "name:sm": "Perisipeni",
    "name:sr": "Бризбејн",
    "name:sv": "Brisbane",
    "name:ta": "பிரிஸ்பேன்",
    "name:tg": "Брисбен",
    "name:th": "บริสเบน",
    "name:to": "Pilisipeini",
    "name:tt": "Брисбен",
    "name:ug": "برىسبان",
    "name:uk": "Брісбен",
    "name:ur": "برسبین",
    "name:uz": "Brisben",
    "name:yi": "בריזבן",
    "name:yxg": "Meanjin",
    "name:zh": "布里斯班",
    "name:zh-Hans": "布里斯班",
    "name:zh-Hant": "布里斯班",
    "place": "city",
    "population": "2287896",
    "population:date": "2021",
    "rank": "10",
    "source:name:oc": "Lo Congrès",
    "source:population": "ABS Urban Centres and Localities",
    "website": "https://www.brisbane.qld.gov.au/",
    "wikidata": "Q34932",
    "wikipedia": "en:Brisbane"
  }
},
{
  "type": "node",
  "id": 1639099539,
  "lat": -12.4604400,
  "lon": 130.8410469,
  "tags": {
    "admin_level": "4",
    "capital": "4",
    "name": "Darwin",
    "name:ar": "داروين",
    "name:bn": "ডারউইন",
    "name:eo": "Darvino",
    "name:es": "Darwin",
    "name:ja": "ダーウィン",
    "name:kn": "ಡಾರ್ವಿನ್",
    "name:mk": "Дарвин",
    "name:mr": "डार्विन",
    "name:ru": "Дарвин",
    "name:uk": "Дарвін",
    "name:zh": "达尔文市",
    "place": "city",
    "population": "122207",
    "population:date": "2021",
    "source:population": "ABS Urban Centres and Localities",
    "state_capital": "yes",
    "wikidata": "Q11568",
    "wikipedia": "en:Darwin, Northern Territory"
  }
}

  ]
}
